YAOGAN-39 03B           
1 57988U 23152C   26161.48974662  .00006216  00000+0  29912-3 0  9992
2 57988  34.9916 337.9188 0019026 172.0604 188.0413 15.17958464149175
YAOGAN-39 03C           
1 57990U 23152E   26160.95958788  .00005651  00000+0  27304-3 0  9992
2 57990  34.9916 341.1420 0009136  73.5360 286.6356 15.17966459149061
STARLINK-30537          
1 57991U 23153A   26160.99097583 -.00001054  00000+0 -28790-4 0  9991
2 57991  42.9994 265.7033 0000631 319.6556  40.4249 15.27569977148915
STARLINK-30534          
1 57992U 23153B   26160.97683530  .00001203  00000+0  53232-4 0  9996
2 57992  43.0041 265.5997 0001950 281.8778  78.1855 15.27579324148917
STARLINK-30536          
1 57993U 23153C   26160.99482544  .00000974  00000+0  44903-4 0  9990
2 57993  43.0127 265.7410 0000840 274.8242  85.2514 15.27585143149019
STARLINK-30538          
1 57994U 23153D   26161.00253154  .00001568  00000+0  66487-4 0  9998
2 57994  43.0078 265.7874 0000707 274.5951  85.4820 15.27586621148917
STARLINK-30517          
1 57995U 23153E   26161.01665852  .00002094  00000+0  85523-4 0  9999
2 57995  42.9937 265.8928 0000357 174.9758 185.1097 15.27596679149010
STARLINK-30523          
1 57997U 23153G   26160.60633608  .00003501  00000+0  13658-3 0  9992
2 57997  43.0118 267.9837 0001078 277.1428  82.9301 15.27605685148950
STARLINK-30531          
1 57998U 23153H   26160.98839117 -.00003758  00000+0 -12705-3 0  9995
2 57998  43.0037 265.6857 0001739 271.2588  88.8065 15.27594170149010
STARLINK-30552          
1 57999U 23153J   26160.57053872  .00007707  00000+0  28919-3 0  9997
2 57999  43.0016 268.5675 0001992 263.5849  96.4776 15.27590808148942
STARLINK-30545          
1 58000U 23153K   26160.57423964 -.00001247  00000+0 -35788-4 0  9992
2 58000  43.0085 267.7397 0002501 284.4915  75.5659 15.27572623148951
STARLINK-30535          
1 58001U 23153L   26159.59730731  .00007613  00000+0  28619-3 0  9991
2 58001  43.0088 273.3054 0001072 257.7558 102.3174 15.27546581148805
STARLINK-30540          
1 58002U 23153M   26160.98070757  .00011432  00000+0  42495-3 0  9994
2 58002  43.0042 265.6114 0000886 278.6192  81.4559 15.27529636148913
STARLINK-30539          
1 58004U 23153P   26160.97813888 -.00000021  00000+0  87529-5 0  9997
2 58004  43.0046 265.6096 0001172 263.6355  96.4363 15.27566755149005
STARLINK-30530          
1 58005U 23153Q   26160.98583338 -.00000014  00000+0  90037-5 0  9993
2 58005  43.0052 265.6616 0001147 253.8748 106.1978 15.27575855149013
STARLINK-30526          
1 58006U 23153R   26160.94241990  .00034105  00000+0  11202-2 0  9996
2 58006  43.0014 240.1662 0003915  24.0305 336.0730 15.30964022149307
STARLINK-30527          
1 58007U 23153S   26161.36833167 -.00001589  00000+0 -48147-4 0  9999
2 58007  43.0334  34.9814 0003920 274.0849  85.9555 15.27577826151639
STARLINK-30522          
1 58008U 23153T   26161.02048862 -.00021072  00000+0 -75591-3 0  9994
2 58008  43.0039 265.9086 0001807 243.6982 116.3684 15.27686059149011
STARLINK-30486          
1 58009U 23153U   26160.98197688  .00001051  00000+0  47699-4 0  9992
2 58009  43.0014 265.6295 0001183 257.5573 102.5146 15.27578996148919
STARLINK-30520          
1 58010U 23153V   26160.99225519  .00000479  00000+0  26932-4 0  9990
2 58010  43.0049 265.6929 0001075 263.2565  96.8165 15.27577805148912
STARLINK-30497          
1 58011U 23153W   26160.58066458  .00003060  00000+0  12070-3 0  9997
2 58011  43.0075 267.7718 0001210 272.5688  87.5026 15.27569372148958
STARLINK-30525          
1 58012U 23153X   26160.98454318  .00000859  00000+0  40730-4 0  9996
2 58012  42.9982 265.6399 0001104 282.3667  77.7061 15.27576581149012
THEOS-2 (T2V)           
1 58016U 23155A   26161.49497258  .00000681  00000+0  92995-4 0  9992
2 58016  97.8882 232.5774 0001445  89.9510 270.1869 14.81728993144431
FORMOSAT-7R (TRITON)    
1 58017U 23155B   26161.19323590  .00001352  00000+0  14208-3 0  9993
2 58017  97.8354 242.6357 0002607  98.9149 261.2364 14.91096851145180
ANSER FOLLOWER 2        
1 58018U 23155C   26161.51395315  .00018479  00000+0  37574-3 0  9993
2 58018  97.5536 250.3480 0001469 166.5250 193.6038 15.46355417147920
ANSER FOLLOWER 1        
1 58019U 23155D   26161.51236000  .00050020  00000+0  10085-2 0  9994
2 58019  97.5533 250.9834 0001568 122.5527 237.5873 15.46391727147925
NESS                    
1 58020U 23155E   26161.46652823  .00015334  00000+0  53071-3 0  9997
2 58020  97.5909 247.1092 0005579 210.9288 149.1624 15.29956841147466
CSC-2                   
1 58021U 23155F   26161.49296237  .00008731  00000+0  38889-3 0  9997
2 58021  97.5428 238.1423 0003654 250.3273 109.7568 15.21683669147168
CSC-1                   
1 58022U 23155G   26161.42482250  .00002393  00000+0  14835-3 0  9996
2 58022  97.5368 231.0038 0006481 260.9885  99.0611 15.10682626146713
PRETTY                  
1 58023U 23155H   26161.48719104  .00004557  00000+0  19207-3 0  9996
2 58023  97.5689 243.0215 0003014  75.7594 284.3977 15.23841600147334
