OBJECT_NAME,OBJECT_ID,EPOCH,MEAN_MOTION,ECCENTRICITY,INCLINATION,RA_OF_ASC_NODE,ARG_OF_PERICENTER,MEAN_ANOMALY,EPHEMERIS_TYPE,CLASSIFICATION_TYPE,NORAD_CAT_ID,ELEMENT_SET_NO,REV_AT_EPOCH,BSTAR,MEAN_MOTION_DOT,MEAN_MOTION_DDOT
YAOGAN-39 03B,2023-152C,2026-06-10T11:45:14.107968,15.17958464,.0019026,34.9916,337.9188,172.0604,188.0413,0,U,57988,999,14917,.29912E-3,.6216E-4,0
YAOGAN-39 03C,2023-152E,2026-06-09T23:01:48.392832,15.17966459,.00091368,34.9916,341.1420,73.5360,286.6356,0,U,57990,999,14906,.27304136E-3,.5651E-4,0
STARLINK-30537,2023-153A,2026-06-09T23:47:00.311712,15.27569977,.00006313,42.9994,265.7033,319.6556,40.4249,0,U,57991,999,14891,-.28790101E-4,-.1054E-4,0
STARLINK-30534,2023-153B,2026-06-09T23:26:38.569920,15.27579324,.00019501,43.0041,265.5997,281.8778,78.1855,0,U,57992,999,14891,.5323171E-4,.1203E-4,0
STARLINK-30536,2023-153C,2026-06-09T23:52:32.918016,15.27585143,.00008409,43.0127,265.7410,274.8242,85.2514,0,U,57993,999,14901,.44902741E-4,.974E-5,0
STARLINK-30538,2023-153D,2026-06-10T00:03:38.725056,15.27586621,.00007075,43.0078,265.7874,274.5951,85.4820,0,U,57994,999,14891,.6648728E-4,.1568E-4,0
STARLINK-30517,2023-153E,2026-06-10T00:23:59.296128,15.27596679,.00003579,42.9937,265.8928,174.9758,185.1097,0,U,57995,999,14901,.85522973E-4,.2094E-4,0
STARLINK-30523,2023-153G,2026-06-09T14:33:07.437312,15.27605685,.00010786,43.0118,267.9837,277.1428,82.9301,0,U,57997,999,14895,.13657927E-3,.3501E-4,0
STARLINK-30531,2023-153H,2026-06-09T23:43:16.997088,15.27594170,.00017396,43.0037,265.6857,271.2588,88.8065,0,U,57998,999,14901,-.12705288E-3,-.3758E-4,0
STARLINK-30552,2023-153J,2026-06-09T13:41:34.545408,15.27590808,.00019921,43.0016,268.5675,263.5849,96.4776,0,U,57999,999,14894,.28919298E-3,.7707E-4,0
STARLINK-30545,2023-153K,2026-06-09T13:46:54.304896,15.27572623,.00025011,43.0085,267.7397,284.4915,75.5659,0,U,58000,999,14895,-.35787503E-4,-.1247E-4,0
STARLINK-30535,2023-153L,2026-06-08T14:20:07.351584,15.27546581,.00010727,43.0088,273.3054,257.7558,102.3174,0,U,58001,999,14880,.28618765E-3,.7613E-4,0
STARLINK-30540,2023-153M,2026-06-09T23:32:13.134048,15.27529636,.00008862,43.0042,265.6114,278.6192,81.4559,0,U,58002,999,14891,.4249468E-3,.11432E-3,0
STARLINK-30539,2023-153P,2026-06-09T23:28:31.199232,15.27566755,.00011727,43.0046,265.6096,263.6355,96.4363,0,U,58004,999,14900,.8752931E-5,-.21E-6,0
STARLINK-30530,2023-153Q,2026-06-09T23:39:36.004032,15.27575855,.00011472,43.0052,265.6616,253.8748,106.1978,0,U,58005,999,14901,.9003708E-5,-.14E-6,0
STARLINK-30526,2023-153R,2026-06-09T22:37:05.079360,15.30964022,.00039155,43.0014,240.1662,24.0305,336.0730,0,U,58006,999,14930,.11201964E-2,.34105E-3,0
STARLINK-30527,2023-153S,2026-06-10T08:50:23.856288,15.27577826,.000392,43.0334,34.9814,274.0849,85.9555,0,U,58007,999,15163,-.48147E-4,-.1589E-4,0
STARLINK-30522,2023-153T,2026-06-10T00:29:30.216768,15.27686059,.00018079,43.0039,265.9086,243.6982,116.3684,0,U,58008,999,14901,-.7559056E-3,-.21072E-3,0
STARLINK-30486,2023-153U,2026-06-09T23:34:02.802432,15.27578996,.00011838,43.0014,265.6295,257.5573,102.5146,0,U,58009,999,14891,.476987E-4,.1051E-4,0
STARLINK-30520,2023-153V,2026-06-09T23:48:50.848416,15.27577805,.00010756,43.0049,265.6929,263.2565,96.8165,0,U,58010,999,14891,.26931802E-4,.479E-5,0
STARLINK-30497,2023-153W,2026-06-09T13:56:09.419712,15.27569372,.00012109,43.0075,267.7718,272.5688,87.5026,0,U,58011,999,14895,.12069868E-3,.306E-4,0
STARLINK-30525,2023-153X,2026-06-09T23:37:44.530752,15.27576581,.00011047,42.9982,265.6399,282.3667,77.7061,0,U,58012,999,14901,.40730069E-4,.859E-5,0
THEOS-2 (T2V),2023-155A,2026-06-10T11:52:45.630912,14.81728993,.0001445,97.8882,232.5774,89.9510,270.1869,0,U,58016,999,14443,.92995E-4,.681E-5,0
FORMOSAT-7R (TRITON),2023-155B,2026-06-10T04:38:15.581760,14.91096851,.0002607,97.8354,242.6357,98.9149,261.2364,0,U,58017,999,14518,.14208E-3,.1352E-4,0
ANSER FOLLOWER 2,2023-155C,2026-06-10T12:20:05.552160,15.46355417,.0001469,97.5536,250.3480,166.5250,193.6038,0,U,58018,999,14792,.37574E-3,.18479E-3,0
ANSER FOLLOWER 1,2023-155D,2026-06-10T12:17:47.904000,15.46391727,.0001568,97.5533,250.9834,122.5527,237.5873,0,U,58019,999,14792,.10085E-2,.5002E-3,0
NESS,2023-155E,2026-06-10T11:11:48.039072,15.29956841,.0005579,97.5909,247.1092,210.9288,149.1624,0,U,58020,999,14746,.53071E-3,.15334E-3,0
CSC-2,2023-155F,2026-06-10T11:49:51.948768,15.21683669,.0003654,97.5428,238.1423,250.3273,109.7568,0,U,58021,999,14716,.38889E-3,.8731E-4,0
CSC-1,2023-155G,2026-06-10T10:11:44.664000,15.10682626,.0006481,97.5368,231.0038,260.9885,99.0611,0,U,58022,999,14671,.14835E-3,.2393E-4,0
PRETTY,2023-155H,2026-06-10T11:41:33.305856,15.23841600,.0003014,97.5689,243.0215,75.7594,284.3977,0,U,58023,999,14733,.19207E-3,.4557E-4,0
